FENGYUN 1C DEB          
1 31225U 99025BLF 17345.30855862  .00000484  00000-0  31069-3 0  9993
2 31225  99.1788 351.3689 0103329 250.4568 227.7644 14.05657071546520
